STARLINK-36419          
1 67584U 26016Z   26037.25002315 -.01780387  00000+0 -87551-2 0  9994
2 67584  97.2765  96.1302 0001504  73.4711 179.2672 15.85240693  2999
STARLINK-36560          
1 67585U 26016AA  26037.25002315 -.01776097  00000+0 -85892-2 0  9994
2 67585  97.2758  96.1336 0001388  84.0353 177.0148 15.85577992  2932
CZ-2C DEB               
1 67586U 26009C   26036.74667775  .00126144  00000+0  62681-2 0  9997
2 67586  97.2266 110.3844 0111444 147.5132 213.3023 15.11795830  3259
CZ-2C DEB               
1 67587U 26009D   26036.65480025  .00087841  00000+0  42290-2 0  9993
2 67587  97.6728 111.4798 0108145 153.1374 207.5515 15.13319150  3241
NAVSTAR 85 (USA 581)    
1 67588U 26017A   26037.07196279 -.00000029  00000+0  00000+0 0  9999
2 67588  55.0060  94.0366 0003305  91.2568 268.8478  2.00577691428983
STARLINK-36641          
1 67589U 26018A   26037.50002314 -.01713218  81990-3 -51284-2 0  9992
2 67589  97.2799 101.6368 0001503  81.9248 122.2051 15.92439120  2333
STARLINK-36376          
1 67590U 26018B   26037.50002314 -.01709516  81807-3 -50711-2 0  9991
2 67590  97.2795 101.6381 0001519  80.3492 126.8056 15.92614356  2383
STARLINK-36391          
1 67591U 26018C   26037.50002314 -.01704229  81510-3 -50008-2 0  9998
2 67591  97.2794 101.6398 0001466  82.9187 127.7872 15.92823710  2383
STARLINK-36603          
1 67592U 26018D   26037.50002314 -.01689981  80355-3 -49248-2 0  9996
2 67592  97.2794 101.6407 0001430  88.1702 125.0043 15.92955164  2343
STARLINK-36634          
1 67593U 26018E   26037.50002314 -.01685987  80183-3 -48571-2 0  9996
2 67593  97.2792 101.6422 0001537  80.2861 136.5605 15.93175195  2335
STARLINK-36638          
1 67594U 26018F   26037.50002314 -.01685211  80285-3 -48026-2 0  9995
2 67594  97.2789 101.6438 0001533  81.0929 139.2749 15.93383121  2338
STARLINK-36628          
1 67595U 26018G   26037.50002314 -.01690764  80908-3 -47796-2 0  9990
2 67595  97.2786 101.6446 0001509  88.6861 134.3297 15.93539119  2330
