CCSDS_OMM_VERS = 2.0
CREATION_DATE  = 
ORIGINATOR     = 

OBJECT_NAME    = STARLINK-36419
OBJECT_ID      = 2026-016Z
CENTER_NAME    = EARTH
REF_FRAME      = TEME
TIME_SYSTEM    = UTC
MEAN_ELEMENT_THEORY = SGP/SGP4

EPOCH          = 2026-02-06T06:00:02.000160
MEAN_MOTION    = 15.85240693
ECCENTRICITY   = .00015041
INCLINATION    = 97.2765
RA_OF_ASC_NODE = 96.1302
ARG_OF_PERICENTER = 73.4711
MEAN_ANOMALY   = 179.2672

EPHEMERIS_TYPE = 0
CLASSIFICATION_TYPE = U
NORAD_CAT_ID   = 67584
ELEMENT_SET_NO = 999
REV_AT_EPOCH   = 299
BSTAR          = -.87550961E-2
MEAN_MOTION_DOT = -.1780387E-1
MEAN_MOTION_DDOT = 0

CCSDS_OMM_VERS = 2.0
CREATION_DATE  = 
ORIGINATOR     = 

OBJECT_NAME    = STARLINK-36560
OBJECT_ID      = 2026-016AA
CENTER_NAME    = EARTH
REF_FRAME      = TEME
TIME_SYSTEM    = UTC
MEAN_ELEMENT_THEORY = SGP/SGP4

EPOCH          = 2026-02-06T06:00:02.000160
MEAN_MOTION    = 15.85577992
ECCENTRICITY   = .00013881
INCLINATION    = 97.2758
RA_OF_ASC_NODE = 96.1336
ARG_OF_PERICENTER = 84.0353
MEAN_ANOMALY   = 177.0148

EPHEMERIS_TYPE = 0
CLASSIFICATION_TYPE = U
NORAD_CAT_ID   = 67585
ELEMENT_SET_NO = 999
REV_AT_EPOCH   = 293
BSTAR          = -.85892235E-2
MEAN_MOTION_DOT = -.1776097E-1
MEAN_MOTION_DDOT = 0

CCSDS_OMM_VERS = 2.0
CREATION_DATE  = 
ORIGINATOR     = 

OBJECT_NAME    = CZ-2C DEB
OBJECT_ID      = 2026-009C
CENTER_NAME    = EARTH
REF_FRAME      = TEME
TIME_SYSTEM    = UTC
MEAN_ELEMENT_THEORY = SGP/SGP4

EPOCH          = 2026-02-05T17:55:12.957600
MEAN_MOTION    = 15.11795830
ECCENTRICITY   = .0111444
INCLINATION    = 97.2266
RA_OF_ASC_NODE = 110.3844
ARG_OF_PERICENTER = 147.5132
MEAN_ANOMALY   = 213.3023

EPHEMERIS_TYPE = 0
CLASSIFICATION_TYPE = U
NORAD_CAT_ID   = 67586
ELEMENT_SET_NO = 999
REV_AT_EPOCH   = 325
BSTAR          = .62681E-2
MEAN_MOTION_DOT = .126144E-2
MEAN_MOTION_DDOT = 0

CCSDS_OMM_VERS = 2.0
CREATION_DATE  = 
ORIGINATOR     = 

OBJECT_NAME    = CZ-2C DEB
OBJECT_ID      = 2026-009D
CENTER_NAME    = EARTH
REF_FRAME      = TEME
TIME_SYSTEM    = UTC
MEAN_ELEMENT_THEORY = SGP/SGP4

EPOCH          = 2026-02-05T15:42:54.741600
MEAN_MOTION    = 15.13319150
ECCENTRICITY   = .0108145
INCLINATION    = 97.6728
RA_OF_ASC_NODE = 111.4798
ARG_OF_PERICENTER = 153.1374
MEAN_ANOMALY   = 207.5515

EPHEMERIS_TYPE = 0
CLASSIFICATION_TYPE = U
NORAD_CAT_ID   = 67587
ELEMENT_SET_NO = 999
REV_AT_EPOCH   = 324
BSTAR          = .4229E-2
MEAN_MOTION_DOT = .87841E-3
MEAN_MOTION_DDOT = 0

CCSDS_OMM_VERS = 2.0
CREATION_DATE  = 
ORIGINATOR     = 

OBJECT_NAME    = NAVSTAR 85 (USA 581)
OBJECT_ID      = 2026-017A
CENTER_NAME    = EARTH
REF_FRAME      = TEME
TIME_SYSTEM    = UTC
MEAN_ELEMENT_THEORY = SGP/SGP4

EPOCH          = 2026-02-06T01:43:37.585056
MEAN_MOTION    = 2.00577691
ECCENTRICITY   = .0003305
INCLINATION    = 55.0060
RA_OF_ASC_NODE = 94.0366
ARG_OF_PERICENTER = 91.2568
MEAN_ANOMALY   = 268.8478

EPHEMERIS_TYPE = 0
CLASSIFICATION_TYPE = U
NORAD_CAT_ID   = 67588
ELEMENT_SET_NO = 999
REV_AT_EPOCH   = 42898
BSTAR          = 0
MEAN_MOTION_DOT = -.29E-6
MEAN_MOTION_DDOT = 0

CCSDS_OMM_VERS = 2.0
CREATION_DATE  = 
ORIGINATOR     = 

OBJECT_NAME    = STARLINK-36641
OBJECT_ID      = 2026-018A
CENTER_NAME    = EARTH
REF_FRAME      = TEME
TIME_SYSTEM    = UTC
MEAN_ELEMENT_THEORY = SGP/SGP4

EPOCH          = 2026-02-06T12:00:01.999296
MEAN_MOTION    = 15.92439120
ECCENTRICITY   = .0001503
INCLINATION    = 97.2799
RA_OF_ASC_NODE = 101.6368
ARG_OF_PERICENTER = 81.9248
MEAN_ANOMALY   = 122.2051

EPHEMERIS_TYPE = 0
CLASSIFICATION_TYPE = U
NORAD_CAT_ID   = 67589
ELEMENT_SET_NO = 999
REV_AT_EPOCH   = 233
BSTAR          = -.51284E-2
MEAN_MOTION_DOT = -.1713218E-1
MEAN_MOTION_DDOT = .8199E-3

CCSDS_OMM_VERS = 2.0
CREATION_DATE  = 
ORIGINATOR     = 

OBJECT_NAME    = STARLINK-36376
OBJECT_ID      = 2026-018B
CENTER_NAME    = EARTH
REF_FRAME      = TEME
TIME_SYSTEM    = UTC
MEAN_ELEMENT_THEORY = SGP/SGP4

EPOCH          = 2026-02-06T12:00:01.999296
MEAN_MOTION    = 15.92614356
ECCENTRICITY   = .0001519
INCLINATION    = 97.2795
RA_OF_ASC_NODE = 101.6381
ARG_OF_PERICENTER = 80.3492
MEAN_ANOMALY   = 126.8056

EPHEMERIS_TYPE = 0
CLASSIFICATION_TYPE = U
NORAD_CAT_ID   = 67590
ELEMENT_SET_NO = 999
REV_AT_EPOCH   = 238
BSTAR          = -.50711E-2
MEAN_MOTION_DOT = -.1709516E-1
MEAN_MOTION_DDOT = .81807E-3

CCSDS_OMM_VERS = 2.0
CREATION_DATE  = 
ORIGINATOR     = 

OBJECT_NAME    = STARLINK-36391
OBJECT_ID      = 2026-018C
CENTER_NAME    = EARTH
REF_FRAME      = TEME
TIME_SYSTEM    = UTC
MEAN_ELEMENT_THEORY = SGP/SGP4

EPOCH          = 2026-02-06T12:00:01.999296
MEAN_MOTION    = 15.92823710
ECCENTRICITY   = .0001466
INCLINATION    = 97.2794
RA_OF_ASC_NODE = 101.6398
ARG_OF_PERICENTER = 82.9187
MEAN_ANOMALY   = 127.7872

EPHEMERIS_TYPE = 0
CLASSIFICATION_TYPE = U
NORAD_CAT_ID   = 67591
ELEMENT_SET_NO = 999
REV_AT_EPOCH   = 238
BSTAR          = -.50008E-2
MEAN_MOTION_DOT = -.1704229E-1
MEAN_MOTION_DDOT = .8151E-3

CCSDS_OMM_VERS = 2.0
CREATION_DATE  = 
ORIGINATOR     = 

OBJECT_NAME    = STARLINK-36603
OBJECT_ID      = 2026-018D
CENTER_NAME    = EARTH
REF_FRAME      = TEME
TIME_SYSTEM    = UTC
MEAN_ELEMENT_THEORY = SGP/SGP4

EPOCH          = 2026-02-06T12:00:01.999296
MEAN_MOTION    = 15.92955164
ECCENTRICITY   = .000143
INCLINATION    = 97.2794
RA_OF_ASC_NODE = 101.6407
ARG_OF_PERICENTER = 88.1702
MEAN_ANOMALY   = 125.0043

EPHEMERIS_TYPE = 0
CLASSIFICATION_TYPE = U
NORAD_CAT_ID   = 67592
ELEMENT_SET_NO = 999
REV_AT_EPOCH   = 234
BSTAR          = -.49248E-2
MEAN_MOTION_DOT = -.1689981E-1
MEAN_MOTION_DDOT = .80355E-3

CCSDS_OMM_VERS = 2.0
CREATION_DATE  = 
ORIGINATOR     = 

OBJECT_NAME    = STARLINK-36634
OBJECT_ID      = 2026-018E
CENTER_NAME    = EARTH
REF_FRAME      = TEME
TIME_SYSTEM    = UTC
MEAN_ELEMENT_THEORY = SGP/SGP4

EPOCH          = 2026-02-06T12:00:01.999296
MEAN_MOTION    = 15.93175195
ECCENTRICITY   = .0001537
INCLINATION    = 97.2792
RA_OF_ASC_NODE = 101.6422
ARG_OF_PERICENTER = 80.2861
MEAN_ANOMALY   = 136.5605

EPHEMERIS_TYPE = 0
CLASSIFICATION_TYPE = U
NORAD_CAT_ID   = 67593
ELEMENT_SET_NO = 999
REV_AT_EPOCH   = 233
BSTAR          = -.48571E-2
MEAN_MOTION_DOT = -.1685987E-1
MEAN_MOTION_DDOT = .80183E-3

CCSDS_OMM_VERS = 2.0
CREATION_DATE  = 
ORIGINATOR     = 

OBJECT_NAME    = STARLINK-36638
OBJECT_ID      = 2026-018F
CENTER_NAME    = EARTH
REF_FRAME      = TEME
TIME_SYSTEM    = UTC
MEAN_ELEMENT_THEORY = SGP/SGP4

EPOCH          = 2026-02-06T12:00:01.999296
MEAN_MOTION    = 15.93383121
ECCENTRICITY   = .0001533
INCLINATION    = 97.2789
RA_OF_ASC_NODE = 101.6438
ARG_OF_PERICENTER = 81.0929
MEAN_ANOMALY   = 139.2749

EPHEMERIS_TYPE = 0
CLASSIFICATION_TYPE = U
NORAD_CAT_ID   = 67594
ELEMENT_SET_NO = 999
REV_AT_EPOCH   = 233
BSTAR          = -.48026E-2
MEAN_MOTION_DOT = -.1685211E-1
MEAN_MOTION_DDOT = .80285E-3

CCSDS_OMM_VERS = 2.0
CREATION_DATE  = 
ORIGINATOR     = 

OBJECT_NAME    = STARLINK-36628
OBJECT_ID      = 2026-018G
CENTER_NAME    = EARTH
REF_FRAME      = TEME
TIME_SYSTEM    = UTC
MEAN_ELEMENT_THEORY = SGP/SGP4

EPOCH          = 2026-02-06T12:00:01.999296
MEAN_MOTION    = 15.93539119
ECCENTRICITY   = .0001509
INCLINATION    = 97.2786
RA_OF_ASC_NODE = 101.6446
ARG_OF_PERICENTER = 88.6861
MEAN_ANOMALY   = 134.3297

EPHEMERIS_TYPE = 0
CLASSIFICATION_TYPE = U
NORAD_CAT_ID   = 67595
ELEMENT_SET_NO = 999
REV_AT_EPOCH   = 233
BSTAR          = -.47796E-2
MEAN_MOTION_DOT = -.1690764E-1
MEAN_MOTION_DDOT = .80908E-3

